NORAD_CAT_ID,OBJECT_NAME,OBJECT_TYPE,EPOCH,MEAN_MOTION,ECCENTRICITY,INCLINATION,RA_OF_ASC_NODE,ARG_OF_PERICENTER,MEAN_ANOMALY,BSTAR,MEAN_MOTION_DOT,MEAN_MOTION_DDOT,TLE_LINE0,TLE_LINE1,TLE_LINE2,SEMIMAJOR_AXIS,PERIOD,APOGEE,PERIGEE,DECAYED
53632.0,STARLINK-4606,PAYLOAD,2024-03-01 00:49:31,15.08838803,0.0001486,53.2184,300.0618,99.2295,260.8866,4.5851e-05,4.42e-06,0.0,0 STARLINK-4606,1 53632U 22104AW  24061.03439501  .00000442  00000-0  45851-4 0  9993,2 53632  53.2184 300.0618 0001486  99.2295 260.8866 15.08838803 83693,6917.884,95.438,540.777,538.721,0.0
53632.0,STARLINK-4606,PAYLOAD,2024-03-01 08:46:27,15.08841649,0.0001507,53.2183,298.5751,96.8113,263.3051,6.0784e-05,6.8e-06,0.0,0 STARLINK-4606,1 53632U 22104AW  24061.36559342  .00000680  00000-0  60784-4 0  9991,2 53632  53.2183 298.5751 0001507  96.8113 263.3051 15.08841649 84762,6917.875,95.437,540.783,538.698,0.0
53632.0,STARLINK-4606,PAYLOAD,2024-03-01 19:54:08,15.08847607,0.0001389,53.2171,296.4921,99.7797,260.3352,0.00014389,2.003e-05,0.0,0 STARLINK-4606,1 53632U 22104AW  24061.82926692  .00002003  00000-0  14389-3 0  9998,2 53632  53.2171 296.4921 0001389  99.7797 260.3352 15.08847607 83819,6917.857,95.437,540.683,538.761,0.0
53632.0,STARLINK-4606,PAYLOAD,2024-03-01 21:29:31,15.08848836,0.0001468,53.2174,296.1949,108.4261,251.689,0.00014028,1.946e-05,0.0,0 STARLINK-4606,1 53632U 22104AW  24061.89550627  .00001946  00000-0  14028-3 0  9991,2 53632  53.2174 296.1949 0001468 108.4261 251.6890 15.08848836 84840,6917.853,95.437,540.734,538.703,0.0
53632.0,STARLINK-4606,PAYLOAD,2024-03-01 23:04:54,15.08849221,0.0001439,53.2167,295.8975,103.6413,256.4739,0.00015924,2.248e-05,0.0,0 STARLINK-4606,1 53632U 22104AW  24061.96174537  .00002248  00000-0  15924-3 0  9993,2 53632  53.2167 295.8975 0001439 103.6413 256.4739 15.08849221 84856,6917.852,95.437,540.713,538.722,0.0
53632.0,STARLINK-4606,PAYLOAD,2024-03-02 19:44:56,15.0883663,0.0001191,53.2164,292.0293,88.6756,271.4372,0.00019916,2.883e-05,0.0,0 STARLINK-4606,1 53632U 22104AW  24062.82287281  .00002883  00000-0  19916-3 0  9990,2 53632  53.2164 292.0293 0001191  88.6756 271.4372 15.08836630 83963,6917.891,95.438,540.58,538.932,0.0
53632.0,STARLINK-4606,PAYLOAD,2024-03-02 21:20:19,15.08842587,0.0001344,53.2168,291.7334,85.1283,274.9863,9.7245e-05,1.26e-05,0.0,0 STARLINK-4606,1 53632U 22104AW  24062.88910992  .00001260  00000-0  97245-4 0  9998,2 53632  53.2168 291.7334 0001344  85.1283 274.9863 15.08842587 84991,6917.872,95.437,540.667,538.808,0.0
53632.0,STARLINK-4606,PAYLOAD,2024-03-03 00:31:05,15.08845988,0.0001366,53.2168,291.1386,80.4392,279.6754,0.00014211,1.975e-05,0.0,0 STARLINK-4606,1 53632U 22104AW  24063.02158846  .00001975  00000-0  14211-3 0  9991,2 53632  53.2168 291.1386 0001366  80.4392 279.6754 15.08845988 83993,6917.862,95.437,540.672,538.782,0.0
53632.0,STARLINK-4606,PAYLOAD,2024-03-03 08:28:00,15.08844156,0.0001201,53.2163,289.6503,76.6051,283.5075,8.7319e-05,1.102e-05,0.0,0 STARLINK-4606,1 53632U 22104AW  24063.35278881  .00001102  00000-0  87319-4 0  9991,2 53632  53.2163 289.6503 0001201  76.6051 283.5075 15.08844156 85064,6917.868,95.437,540.564,538.902,0.0
53632.0,STARLINK-4606,PAYLOAD,2024-03-03 19:35:42,15.08842812,0.0001116,53.2167,287.5674,85.0958,275.0161,5.7524e-05,6.28e-06,0.0,0 STARLINK-4606,1 53632U 22104AW  24063.81646885  .00000628  00000-0  57524-4 0  9992,2 53632  53.2167 287.5674 0001116  85.0958 275.0161 15.08842812 85136,6917.872,95.437,540.509,538.965,0.0
53632.0,STARLINK-4606,PAYLOAD,2024-03-04 08:18:47,15.08849656,0.0001553,53.2186,285.1873,90.8968,269.2202,0.00020058,2.906e-05,0.0,0 STARLINK-4606,1 53632U 22104AW  24064.34638483  .00002906  00000-0  20058-3 0  9998,2 53632  53.2186 285.1873 0001553  90.8968 269.2202 15.08849656 84191,6917.851,95.437,540.79,538.642,0.0
53632.0,STARLINK-4606,PAYLOAD,2024-03-04 21:01:51,15.08857735,0.0001421,53.2176,282.8077,102.772,257.3431,0.00016714,2.374e-05,0.0,0 STARLINK-4606,1 53632U 22104AW  24064.87629622  .00002374  00000-0  16714-3 0  9994,2 53632  53.2176 282.8077 0001421 102.7720 257.3431 15.08857735 85294,6917.826,95.436,540.674,538.708,0.0
53632.0,STARLINK-4606,PAYLOAD,2024-03-05 19:17:16,15.08837854,0.0001517,53.217,278.645,115.8646,244.2503,-6.433e-05,-1.312e-05,0.0,0 STARLINK-4606,1 53632U 22104AW  24065.80366485 -.00001312  00000-0 -64330-4 0  9994,2 53632  53.2170 278.6450 0001517 115.8646 244.2503 15.08837854 84412,6917.887,95.438,540.801,538.703,0.0
53632.0,STARLINK-4606,PAYLOAD,2024-03-06 14:21:54,15.08831385,0.0001235,53.2154,275.0776,101.6238,258.4893,-4.8988e-05,-1.067e-05,0.0,0 STARLINK-4606,1 53632U 22104AW  24066.59855224 -.00001067  00000-0 -48988-4 0  9993,2 53632  53.2154 275.0776 0001235 101.6238 258.4893 15.08831385 85551,6917.907,95.438,540.626,538.917,0.0
53632.0,STARLINK-4606,PAYLOAD,2024-03-06 20:43:27,15.08839287,0.0001343,53.2163,273.892,106.0114,254.1026,-5.7849e-06,-3.8e-06,0.0,0 STARLINK-4606,1 53632U 22104AW  24066.86351022 -.00000380  00000-0 -57849-5 0  9994,2 53632  53.2163 273.8920 0001343 106.0114 254.1026 15.08839287 84571,6917.883,95.438,540.677,538.818,0.0
53632.0,STARLINK-4606,PAYLOAD,2024-03-07 12:37:19,15.08835175,0.00015,53.2172,270.9207,108.0195,252.0961,0.00029963,4.483e-05,0.0,0 STARLINK-4606,1 53632U 22104AW  24067.52591498  .00004483  00000-0  29963-3 0  9991,2 53632  53.2172 270.9207 0001500 108.0195 252.0961 15.08835175 85694,6917.895,95.438,540.798,538.722,0.0
53632.0,STARLINK-4606,PAYLOAD,2024-03-08 12:28:06,15.08841532,0.0001411,53.217,266.4595,107.6478,252.4669,0.0001492,2.087e-05,0.0,0 STARLINK-4606,1 53632U 22104AW  24068.51951566  .00002087  00000-0  14920-3 0  9992,2 53632  53.2170 266.4595 0001411 107.6478 252.4669 15.08841532 84829,6917.876,95.437,540.717,538.765,0.0
53632.0,STARLINK-4606,PAYLOAD,2024-03-09 12:18:53,15.0884076,0.0001456,53.2157,261.9969,93.2487,266.8672,0.00015278,2.144e-05,0.0,0 STARLINK-4606,1 53632U 22104AW  24069.51311694  .00002144  00000-0  15278-3 0  9996,2 53632  53.2157 261.9969 0001456  93.2487 266.8672 15.08840760 85992,6917.878,95.438,540.75,538.736,0.0
53632.0,STARLINK-4606,PAYLOAD,2024-03-10 05:48:08,15.08833371,0.0001625,53.2133,258.7234,90.836,269.2818,0.00043106,6.578e-05,0.0,0 STARLINK-4606,1 53632U 22104AW  24070.24176256  .00006578  00000-0  43106-3 0  9997,2 53632  53.2133 258.7234 0001625  90.8360 269.2818 15.08833371 85085,6917.901,95.438,540.89,538.641,0.0
53632.0,STARLINK-4606,PAYLOAD,2024-03-10 21:41:59,15.08841918,0.0001462,53.2151,255.7507,88.7609,271.355,0.00011402,1.527e-05,0.0,0 STARLINK-4606,1 53632U 22104AW  24070.90415786  .00001527  00000-0  11402-3 0  9997,2 53632  53.2151 255.7507 0001462  88.7609 271.3550 15.08841918 86204,6917.875,95.437,540.751,538.728,0.0
53632.0,STARLINK-4606,PAYLOAD,2024-03-11 05:38:54,15.08841909,0.0001468,53.2152,254.2636,89.9688,270.1472,0.00011832,1.596e-05,0.0,0 STARLINK-4606,1 53632U 22104AW  24071.23535806  .00001596  00000-0  11832-3 0  9993,2 53632  53.2152 254.2636 0001468  89.9688 270.1472 15.08841909 86253,6917.875,95.437,540.755,538.724,0.0
53632.0,STARLINK-4606,PAYLOAD,2024-03-11 18:22:00,15.08839686,0.0001476,53.2156,251.8847,90.8695,269.2466,7.9732e-05,9.81e-06,0.0,0 STARLINK-4606,1 53632U 22104AW  24071.76528003  .00000981  00000-0  79732-4 0  9993,2 53632  53.2156 251.8847 0001476  90.8695 269.2466 15.08839686 85319,6917.881,95.438,540.767,538.725,0.0
53632.0,STARLINK-4606,PAYLOAD,2024-03-12 21:23:33,15.08839546,0.0001427,53.2153,246.8302,84.0938,276.0217,0.00019956,2.889e-05,0.0,0 STARLINK-4606,1 53632U 22104AW  24072.89136069  .00002889  00000-0  19956-3 0  9995,2 53632  53.2153 246.8302 0001427  84.0938 276.0217 15.08839546 86504,6917.882,95.438,540.734,538.76,0.0
53632.0,STARLINK-4606,PAYLOAD,2024-03-13 21:14:20,15.08841774,0.00014,53.2158,242.368,92.9787,267.1365,8.0071e-05,9.87e-06,0.0,0 STARLINK-4606,1 53632U 22104AW  24073.88495877  .00000987  00000-0  80071-4 0  9994,2 53632  53.2158 242.3680 0001400  92.9787 267.1365 15.08841774 86657,6917.875,95.437,540.708,538.771,0.0
53632.0,STARLINK-4606,PAYLOAD,2024-03-14 03:35:52,15.08844316,0.0001469,53.2145,241.1809,81.9421,278.1738,0.0001108,1.476e-05,0.0,0 STARLINK-4606,1 53632U 22104AW  24074.14991737  .00001476  00000-0  11080-3 0  9997,2 53632  53.2145 241.1809 0001469  81.9421 278.1738 15.08844316 85673,6917.867,95.437,540.748,538.716,0.0
53632.0,STARLINK-4606,PAYLOAD,2024-03-14 21:05:07,15.08836338,0.0001124,53.2182,237.9037,89.1692,270.9429,7.3089e-05,8.75e-06,0.0,0 STARLINK-4606,1 53632U 22104AW  24074.87856452  .00000875  00000-0  73089-4 0  9991,2 53632  53.2182 237.9037 0001124  89.1692 270.9429 15.08836338 85782,6917.892,95.438,540.534,538.979,0.0
53632.0,STARLINK-4606,PAYLOAD,2024-03-15 20:55:55,15.08838163,0.0002121,53.2166,233.4489,79.9292,280.1939,7.1491e-05,8.5e-06,0.0,0 STARLINK-4606,1 53632U 22104AW  24075.87216913  .00000850  00000-0  71491-4 0  9992,2 53632  53.2166 233.4489 0002121  79.9292 280.1939 15.08838163 86954,6917.886,95.438,541.218,538.284,0.0
53632.0,STARLINK-4606,PAYLOAD,2024-03-16 09:39:00,15.08840877,0.0002025,53.2165,231.0698,82.304,277.8182,8.1448e-05,1.008e-05,0.0,0 STARLINK-4606,1 53632U 22104AW  24076.40208746  .00001008  00000-0  81448-4 0  9996,2 53632  53.2165 231.0698 0002025  82.3040 277.8182 15.08840877 86016,6917.878,95.437,541.144,538.342,0.0
53632.0,STARLINK-4606,PAYLOAD,2024-03-16 14:25:09,15.0883599,0.000152,53.2173,230.1751,91.4258,268.6908,0.00017013,2.42e-05,0.0,0 STARLINK-4606,1 53632U 22104AW  24076.60080820  .00002420  00000-0  17013-3 0  9994,2 53632  53.2173 230.1751 0001520  91.4258 268.6908 15.08835990 87066,6917.893,95.438,540.809,538.706,0.0
53632.0,STARLINK-4606,PAYLOAD,2024-03-16 17:35:56,15.08837263,0.00012,53.2168,229.5817,92.4,267.7129,0.00012092,1.637e-05,0.0,0 STARLINK-4606,1 53632U 22104AW  24076.73328863  .00001637  00000-0  12092-3 0  9991,2 53632  53.2168 229.5817 0001200  92.4000 267.7129 15.08837263 87088,6917.889,95.438,540.584,538.924,0.0
